[{"OBJECT_NAME":"STARLINK-1830","OBJECT_ID":"2020-073BK","EPOCH":"2026-03-10T00:00:02.999808","MEAN_MOTION":15.55242879,"ECCENTRICITY":0.0001668,"INCLINATION":53.0428,"RA_OF_ASC_NODE":181.8911,"ARG_OF_PERICENTER":29.9698,"MEAN_ANOMALY":284.4925,"EPHEMERIS_TYPE":0,"CLASSIFICATION_TYPE":"U","NORAD_CAT_ID":46727,"ELEMENT_SET_NO":999,"REV_AT_EPOCH":587,"BSTAR":0.0015501406,"MEAN_MOTION_DOT":0.00107729,"MEAN_MOTION_DDOT":0},{"OBJECT_NAME":"STARLINK-2162","OBJECT_ID":"2021-017AC","EPOCH":"2026-03-10T00:00:02.999808","MEAN_MOTION":15.43772668,"ECCENTRICITY":0.00014572,"INCLINATION":53.1597,"RA_OF_ASC_NODE":191.6708,"ARG_OF_PERICENTER":88.7385,"MEAN_ANOMALY":324.0678,"EPHEMERIS_TYPE":0,"CLASSIFICATION_TYPE":"U","NORAD_CAT_ID":47748,"ELEMENT_SET_NO":999,"REV_AT_EPOCH":576,"BSTAR":0.023342841,"MEAN_MOTION_DOT":0.0117885,"MEAN_MOTION_DDOT":0}]
